[{"OBJECT_NAME":"STARLINK-33570","OBJECT_ID":"2025-015U","EPOCH":"2025-12-31T04:09:17.040960","MEAN_MOTION":15.30269875,"ECCENTRICITY":0.00013474,"INCLINATION":53.1615,"RA_OF_ASC_NODE":280.514,"ARG_OF_PERICENTER":81.9528,"MEAN_ANOMALY":278.1626,"EPHEMERIS_TYPE":0,"CLASSIFICATION_TYPE":"U","NORAD_CAT_ID":62776,"ELEMENT_SET_NO":999,"REV_AT_EPOCH":5393,"BSTAR":0.0025574573,"MEAN_MOTION_DOT":0.00076332,"MEAN_MOTION_DDOT":0},{"OBJECT_NAME":"STARLINK-33591","OBJECT_ID":"2025-015V","EPOCH":"2025-12-31T04:42:42.851520","MEAN_MOTION":15.30217361,"ECCENTRICITY":0.00011498,"INCLINATION":53.1583,"RA_OF_ASC_NODE":280.6605,"ARG_OF_PERICENTER":86.1678,"MEAN_ANOMALY":273.9454,"EPHEMERIS_TYPE":0,"CLASSIFICATION_TYPE":"U","NORAD_CAT_ID":62777,"ELEMENT_SET_NO":999,"REV_AT_EPOCH":5399,"BSTAR":0.0018484979,"MEAN_MOTION_DOT":0.00054822,"MEAN_MOTION_DDOT":0},{"OBJECT_NAME":"STARLINK-33573","OBJECT_ID":"2025-015W","EPOCH":"2025-12-31T04:00:09.512064","MEAN_MOTION":15.30221384,"ECCENTRICITY":0.00011781,"INCLINATION":53.1615,"RA_OF_ASC_NODE":280.4779,"ARG_OF_PERICENTER":65.5558,"MEAN_ANOMALY":294.5565,"EPHEMERIS_TYPE":0,"CLASSIFICATION_TYPE":"U","NORAD_CAT_ID":62778,"ELEMENT_SET_NO":999,"REV_AT_EPOCH":5399,"BSTAR":0.0016340302,"MEAN_MOTION_DOT":0.00048384,"MEAN_MOTION_DDOT":0},{"OBJECT_NAME":"STARLINK-33568","OBJECT_ID":"2025-015X","EPOCH":"2025-12-31T01:25:28.709184","MEAN_MOTION":15.30217737,"ECCENTRICITY":0.00012021,"INCLINATION":53.1588,"RA_OF_ASC_NODE":281.23,"ARG_OF_PERICENTER":83.6371,"MEAN_ANOMALY":276.4767,"EPHEMERIS_TYPE":0,"CLASSIFICATION_TYPE":"U","NORAD_CAT_ID":62779,"ELEMENT_SET_NO":999,"REV_AT_EPOCH":5381,"BSTAR":0.0012200408,"MEAN_MOTION_DOT":0.0003597,"MEAN_MOTION_DDOT":0},{"OBJECT_NAME":"STARLINK-33593","OBJECT_ID":"2025-015Y","EPOCH":"2025-12-31T00:58:07.772736","MEAN_MOTION":15.30198861,"ECCENTRICITY":0.00012501,"INCLINATION":53.1609,"RA_OF_ASC_NODE":281.1072,"ARG_OF_PERICENTER":79.9437,"MEAN_ANOMALY":280.1705,"EPHEMERIS_TYPE":0,"CLASSIFICATION_TYPE":"U","NORAD_CAT_ID":62780,"ELEMENT_SET_NO":999,"REV_AT_EPOCH":5397,"BSTAR":0.0021660953,"MEAN_MOTION_DOT":0.00064349,"MEAN_MOTION_DDOT":0},{"OBJECT_NAME":"STARLINK-33588","OBJECT_ID":"2025-015Z","EPOCH":"2025-12-31T04:35:50.831520","MEAN_MOTION":15.30222506,"ECCENTRICITY":9.939e-5,"INCLINATION":53.1583,"RA_OF_ASC_NODE":278.4393,"ARG_OF_PERICENTER":90.0578,"MEAN_ANOMALY":270.0537,"EPHEMERIS_TYPE":0,"CLASSIFICATION_TYPE":"U","NORAD_CAT_ID":62781,"ELEMENT_SET_NO":999,"REV_AT_EPOCH":5402,"BSTAR":0.00121091,"MEAN_MOTION_DOT":0.00035702,"MEAN_MOTION_DDOT":0},{"OBJECT_NAME":"STARLINK-33585","OBJECT_ID":"2025-015AA","EPOCH":"2025-12-31T03:46:28.688736","MEAN_MOTION":15.30212567,"ECCENTRICITY":6.788e-5,"INCLINATION":53.1613,"RA_OF_ASC_NODE":280.4179,"ARG_OF_PERICENTER":118.5678,"MEAN_ANOMALY":241.5391,"EPHEMERIS_TYPE":0,"CLASSIFICATION_TYPE":"U","NORAD_CAT_ID":62782,"ELEMENT_SET_NO":999,"REV_AT_EPOCH":5371,"BSTAR":0.0016356208,"MEAN_MOTION_DOT":0.00048418,"MEAN_MOTION_DDOT":0},{"OBJECT_NAME":"STARLINK-33582","OBJECT_ID":"2025-015AB","EPOCH":"2025-12-31T04:19:54.813792","MEAN_MOTION":15.3022199,"ECCENTRICITY":0.00012719,"INCLINATION":53.1599,"RA_OF_ASC_NODE":280.5615,"ARG_OF_PERICENTER":66.6497,"MEAN_ANOMALY":293.4638,"EPHEMERIS_TYPE":0,"CLASSIFICATION_TYPE":"U","NORAD_CAT_ID":62783,"ELEMENT_SET_NO":999,"REV_AT_EPOCH":5392,"BSTAR":0.0022222889,"MEAN_MOTION_DOT":0.00066091,"MEAN_MOTION_DDOT":0},{"OBJECT_NAME":"STARLINK-33581","OBJECT_ID":"2025-015AC","EPOCH":"2025-12-31T03:29:55.430016","MEAN_MOTION":15.3020868,"ECCENTRICITY":0.00010049,"INCLINATION":53.1595,"RA_OF_ASC_NODE":281.0533,"ARG_OF_PERICENTER":106.621,"MEAN_ANOMALY":253.4902,"EPHEMERIS_TYPE":0,"CLASSIFICATION_TYPE":"U","NORAD_CAT_ID":62784,"ELEMENT_SET_NO":999,"REV_AT_EPOCH":5398,"BSTAR":0.00085976511,"MEAN_MOTION_DOT":0.00025198,"MEAN_MOTION_DDOT":0},{"OBJECT_NAME":"STARLINK-32883","OBJECT_ID":"2025-018A","EPOCH":"2025-12-30T22:33:14.396544","MEAN_MOTION":15.30196702,"ECCENTRICITY":0.00013427,"INCLINATION":53.1604,"RA_OF_ASC_NODE":268.8559,"ARG_OF_PERICENTER":24.1553,"MEAN_ANOMALY":335.951,"EPHEMERIS_TYPE":0,"CLASSIFICATION_TYPE":"U","NORAD_CAT_ID":62806,"ELEMENT_SET_NO":999,"REV_AT_EPOCH":5356,"BSTAR":0.0016580682,"MEAN_MOTION_DOT":0.00049068,"MEAN_MOTION_DDOT":0},{"OBJECT_NAME":"STARLINK-32886","OBJECT_ID":"2025-018B","EPOCH":"2025-12-31T03:13:51.905856","MEAN_MOTION":15.30234528,"ECCENTRICITY":3.206e-5,"INCLINATION":53.161,"RA_OF_ASC_NODE":267.9352,"ARG_OF_PERICENTER":192.2239,"MEAN_ANOMALY":167.8754,"EPHEMERIS_TYPE":0,"CLASSIFICATION_TYPE":"U","NORAD_CAT_ID":62807,"ELEMENT_SET_NO":999,"REV_AT_EPOCH":5268,"BSTAR":0.0021650362,"MEAN_MOTION_DOT":0.00064389,"MEAN_MOTION_DDOT":0},{"OBJECT_NAME":"STARLINK-32848","OBJECT_ID":"2025-018C","EPOCH":"2025-12-31T00:13:21.854208","MEAN_MOTION":15.30222896,"ECCENTRICITY":8.936e-5,"INCLINATION":53.1603,"RA_OF_ASC_NODE":268.5748,"ARG_OF_PERICENTER":103.9432,"MEAN_ANOMALY":256.1668,"EPHEMERIS_TYPE":0,"CLASSIFICATION_TYPE":"U","NORAD_CAT_ID":62808,"ELEMENT_SET_NO":999,"REV_AT_EPOCH":5265,"BSTAR":0.0015107296,"MEAN_MOTION_DOT":0.00044685,"MEAN_MOTION_DDOT":0},{"OBJECT_NAME":"STARLINK-32787","OBJECT_ID":"2025-018D","EPOCH":"2025-12-31T03:10:49.950912","MEAN_MOTION":15.3022337,"ECCENTRICITY":7.989e-5,"INCLINATION":53.1609,"RA_OF_ASC_NODE":267.9235,"ARG_OF_PERICENTER":51.8636,"MEAN_ANOMALY":308.2436,"EPHEMERIS_TYPE":0,"CLASSIFICATION_TYPE":"U","NORAD_CAT_ID":62809,"ELEMENT_SET_NO":999,"REV_AT_EPOCH":5267,"BSTAR":0.0017039631,"MEAN_MOTION_DOT":0.00050487,"MEAN_MOTION_DDOT":0},{"OBJECT_NAME":"STARLINK-32851","OBJECT_ID":"2025-018E","EPOCH":"2025-12-31T03:18:25.520832","MEAN_MOTION":15.30226917,"ECCENTRICITY":8.36e-6,"INCLINATION":53.1601,"RA_OF_ASC_NODE":267.9564,"ARG_OF_PERICENTER":249.6134,"MEAN_ANOMALY":110.4858,"EPHEMERIS_TYPE":0,"CLASSIFICATION_TYPE":"U","NORAD_CAT_ID":62810,"ELEMENT_SET_NO":999,"REV_AT_EPOCH":5267,"BSTAR":0.001704334,"MEAN_MOTION_DOT":0.00050504,"MEAN_MOTION_DDOT":0},{"OBJECT_NAME":"STARLINK-32847","OBJECT_ID":"2025-018F","EPOCH":"2025-12-31T02:52:36.027552","MEAN_MOTION":15.30206415,"ECCENTRICITY":0.00013608,"INCLINATION":53.1603,"RA_OF_ASC_NODE":267.8427,"ARG_OF_PERICENTER":69.3427,"MEAN_ANOMALY":290.772,"EPHEMERIS_TYPE":0,"CLASSIFICATION_TYPE":"U","NORAD_CAT_ID":62811,"ELEMENT_SET_NO":999,"REV_AT_EPOCH":5267,"BSTAR":0.0013686106,"MEAN_MOTION_DOT":0.00040404,"MEAN_MOTION_DDOT":0},{"OBJECT_NAME":"STARLINK-32837","OBJECT_ID":"2025-018G","EPOCH":"2025-12-31T03:06:16.591680","MEAN_MOTION":15.30210449,"ECCENTRICITY":0.00010096,"INCLINATION":53.1618,"RA_OF_ASC_NODE":267.914,"ARG_OF_PERICENTER":98.7102,"MEAN_ANOMALY":261.4013,"EPHEMERIS_TYPE":0,"CLASSIFICATION_TYPE":"U","NORAD_CAT_ID":62812,"ELEMENT_SET_NO":999,"REV_AT_EPOCH":5268,"BSTAR":0.00086460514,"MEAN_MOTION_DOT":0.00025344,"MEAN_MOTION_DDOT":0}]
