STARLINK-33570          
1 62776U 25015U   25365.17311390  .00076332  00000+0  25575-2 0  9993
2 62776  53.1615 280.5140 0001347  81.9528 278.1626 15.30269875 53937
STARLINK-33591          
1 62777U 25015V   25365.19632930  .00054822  00000+0  18485-2 0  9994
2 62777  53.1583 280.6605 0001149  86.1678 273.9454 15.30217361 53993
STARLINK-33573          
1 62778U 25015W   25365.16677676  .00048384  00000+0  16340-2 0  9992
2 62778  53.1615 280.4779 0001178  65.5558 294.5565 15.30221384 53992
STARLINK-33568          
1 62779U 25015X   25365.05936006  .00035970  00000+0  12200-2 0  9994
2 62779  53.1588 281.2300 0001202  83.6371 276.4767 15.30217737 53814
STARLINK-33593          
1 62780U 25015Y   25365.04036774  .00064349  00000+0  21661-2 0  9991
2 62780  53.1609 281.1072 0001250  79.9437 280.1705 15.30198861 53976
STARLINK-33588          
1 62781U 25015Z   25365.19156055  .00035702  00000+0  12109-2 0  9991
2 62781  53.1583 278.4393 0000993  90.0578 270.0537 15.30222506 54028
STARLINK-33585          
1 62782U 25015AA  25365.15727649  .00048418  00000+0  16356-2 0  9997
2 62782  53.1613 280.4179 0000678 118.5678 241.5391 15.30212567 53717
STARLINK-33582          
1 62783U 25015AB  25365.18049553  .00066091  00000+0  22223-2 0  9999
2 62783  53.1599 280.5615 0001271  66.6497 293.4638 15.30221990 53922
STARLINK-33581          
1 62784U 25015AC  25365.14578044  .00025198  00000+0  85977-3 0  9997
2 62784  53.1595 281.0533 0001004 106.6210 253.4902 15.30208680 53983
STARLINK-32883          
1 62806U 25018A   25364.93974996  .00049068  00000+0  16581-2 0  9993
2 62806  53.1604 268.8559 0001342  24.1553 335.9510 15.30196702 53565
STARLINK-32886          
1 62807U 25018B   25365.13462854  .00064389  00000+0  21650-2 0  9998
2 62807  53.1610 267.9352 0000320 192.2239 167.8754 15.30234528 52680
STARLINK-32848          
1 62808U 25018C   25365.00928072  .00044685  00000+0  15107-2 0  9991
2 62808  53.1603 268.5748 0000893 103.9432 256.1668 15.30222896 52656
STARLINK-32787          
1 62809U 25018D   25365.13252258  .00050487  00000+0  17040-2 0  9997
2 62809  53.1609 267.9235 0000798  51.8636 308.2436 15.30223370 52670
STARLINK-32851          
1 62810U 25018E   25365.13779538  .00050504  00000+0  17043-2 0  9997
2 62810  53.1601 267.9564 0000083 249.6134 110.4858 15.30226917 52677
STARLINK-32847          
1 62811U 25018F   25365.11986143  .00040404  00000+0  13686-2 0  9995
2 62811  53.1603 267.8427 0001360  69.3427 290.7720 15.30206415 52679
STARLINK-32837          
1 62812U 25018G   25365.12935870  .00025344  00000+0  86461-3 0  9996
2 62812  53.1618 267.9140 0001009  98.7102 261.4013 15.30210449 52688
